HAWK-9A                 
1 59446U 24066E   26068.43100697  .00002638  00000+0  23459-3 0  9992
2 59446  45.6088  72.7153 0003627 244.6286 115.4219 14.98777479104861
STARLINK-32600          
1 62178U 24225R   26068.63305962  .00010214  00000+0  86211-3 0  9993
2 62178  70.0026 154.7094 0003012 264.8696  95.2119 14.98350761 70118
